[{"OBJECT_NAME":"STARLINK-32123","OBJECT_ID":"2024-132G","EPOCH":"2026-03-09T22:03:48.955104","MEAN_MOTION":15.30174058,"ECCENTRICITY":0.00013242,"INCLINATION":53.162,"RA_OF_ASC_NODE":38.7293,"ARG_OF_PERICENTER":93.9693,"MEAN_ANOMALY":266.1459,"EPHEMERIS_TYPE":0,"CLASSIFICATION_TYPE":"U","NORAD_CAT_ID":60284,"ELEMENT_SET_NO":999,"REV_AT_EPOCH":9177,"BSTAR":-7.5109e-7,"MEAN_MOTION_DOT":-3.81e-6,"MEAN_MOTION_DDOT":0},{"OBJECT_NAME":"BREEZE-M DEB [TANK]","OBJECT_ID":"2011-054C","EPOCH":"2026-03-07T03:42:19.441152","MEAN_MOTION":4.81710856,"ECCENTRICITY":0.54828118,"INCLINATION":49.4652,"RA_OF_ASC_NODE":36.6277,"ARG_OF_PERICENTER":108.5414,"MEAN_ANOMALY":316.4627,"EPHEMERIS_TYPE":0,"CLASSIFICATION_TYPE":"U","NORAD_CAT_ID":37828,"ELEMENT_SET_NO":999,"REV_AT_EPOCH":24311,"BSTAR":0.00062263005,"MEAN_MOTION_DOT":2.456e-5,"MEAN_MOTION_DDOT":0}]
